{"type": "FeatureCollection", "features": [ {"type": "Feature", "properties": {"norad_id": 31092, "name": "FENGYUN 1C DEB", "group": "fengyun-1c-debris", "lat": -23.532942515601622, "lon": 106.51747020123219, "alt_km": 1320.7473752346395, "timestamp": "2025-12-12T09:49:09.012341+00:00", "meta": {"OBJECT_NAME": "FENGYUN 1C DEB", "OBJECT_ID": "1999-025BGN", "EPOCH": "2025-11-15T07:00:52.552224", "MEAN_MOTION": 13.46401433, "ECCENTRICITY": 0.03278725, "INCLINATION": 99.7115, "RA_OF_ASC_NODE": 75.9227, "ARG_OF_PERICENTER": 204.4209, "MEAN_ANOMALY": 154.1084, "EPHEMERIS_TYPE": 0, "CLASSIFICATION_TYPE": "U", "NORAD_CAT_ID": 31092, "ELEMENT_SET_NO": 999, "REV_AT_EPOCH": 91512, "BSTAR": 0.0042000132, "MEAN_MOTION_DOT": 3.457e-05, "MEAN_MOTION_DDOT": 0}, "tle": {"line1": "1 31092U 99025BGN 25319.29227491  .00003457  00000+0  42000-2 0  9992", "line2": "2 31092  99.7115  75.9227 0327872 204.4209 154.1084 13.46401433915121"}}, "geometry": {"type": "Point", "coordinates": [106.51747020123219, -23.532942515601622]}}, {"type": "Feature", "properties": {"norad_id": 31093, "name": "FENGYUN 1C DEB", "group": "fengyun-1c-debris", "lat": 81.30038533182409, "lon": 104.18356824850571, "alt_km": 1061.4342849017803, "timestamp": "2025-12-12T09:49:09.012351+00:00", "meta": {"OBJECT_NAME": "FENGYUN 1C DEB", "OBJECT_ID": "1999-025BGP", "EPOCH": "2025-12-12T00:40:42.307680", "MEAN_MOTION": 13.80631235, "ECCENTRICITY": 0.0208202, "INCLINATION": 98.5948, "RA_OF_ASC_NODE": 185.0918, "ARG_OF_PERICENTER": 225.1214, "MEAN_ANOMALY": 133.2872, "EPHEMERIS_TYPE": 0, "CLASSIFICATION_TYPE": "U", "NORAD_CAT_ID": 31093, "ELEMENT_SET_NO": 999, "REV_AT_EPOCH": 94497, "BSTAR": 0.00063493, "MEAN_MOTION_DOT": 7.45e-06, "MEAN_MOTION_DDOT": 0}, "tle": {"line1": "1 31093U 99025BGP 25346.02826745  .00000745  00000+0  63493-3 0  9998", "line2": "2 31093  98.5948 185.0918 0208202 225.1214 133.2872 13.80631235944975"}}, "geometry": {"type": "Point", "coordinates": [104.18356824850571, 81.30038533182409]}}, {"type": "Feature", "properties": {"norad_id": 31094, "name": "FENGYUN 1C DEB", "group": "fengyun-1c-debris", "lat": -10.127680979802216, "lon": 32.67783066337183, "alt_km": 951.6816850624409, "timestamp": "2025-12-12T09:49:09.012362+00:00", "meta": {"OBJECT_NAME": "FENGYUN 1C DEB", "OBJECT_ID": "1999-025BGQ", "EPOCH": "2025-12-12T02:04:19.593696", "MEAN_MOTION": 14.02038873, "ECCENTRICITY": 0.0106465, "INCLINATION": 98.856, "RA_OF_ASC_NODE": 213.9601, "ARG_OF_PERICENTER": 48.8046, "MEAN_ANOMALY": 312.224, "EPHEMERIS_TYPE": 0, "CLASSIFICATION_TYPE": "U", "NORAD_CAT_ID": 31094, "ELEMENT_SET_NO": 999, "REV_AT_EPOCH": 95610, "BSTAR": 0.002208, "MEAN_MOTION_DOT": 3.5e-05, "MEAN_MOTION_DDOT": 0}, "tle": {"line1": "1 31094U 99025BGQ 25346.08633789  .00003500  00000+0  22080-2 0  9997", "line2": "2 31094  98.8560 213.9601 0106465  48.8046 312.2240 14.02038873956100"}}, "geometry": {"type": "Point", "coordinates": [32.67783066337183, -10.127680979802216]}}, {"type": "Feature", "properties": {"norad_id": 31095, "name": "FENGYUN 1C DEB", "group": "fengyun-1c-debris", "lat": 32.343362518819134, "lon": 123.44777474476096, "alt_km": 1588.9897201666427, "timestamp": "2025-12-12T09:49:09.012372+00:00", "meta": {"OBJECT_NAME": "FENGYUN 1C DEB", "OBJECT_ID": "1999-025BGR", "EPOCH": "2025-12-10T04:20:23.393184", "MEAN_MOTION": 13.06664337, "ECCENTRICITY": 0.0499951, "INCLINATION": 98.5613, "RA_OF_ASC_NODE": 127.1367, "ARG_OF_PERICENTER": 197.9865, "MEAN_ANOMALY": 160.2986, "EPHEMERIS_TYPE": 0, "CLASSIFICATION_TYPE": "U", "NORAD_CAT_ID": 31095, "ELEMENT_SET_NO": 999, "REV_AT_EPOCH": 89414, "BSTAR": 0.00070249, "MEAN_MOTION_DOT": 3.95e-06, "MEAN_MOTION_DDOT": 0}, "tle": {"line1": "1 31095U 99025BGR 25344.18082631  .00000395  00000+0  70249-3 0  9991", "line2": "2 31095  98.5613 127.1367 0499951 197.9865 160.2986 13.06664337894148"}}, "geometry": {"type": "Point", "coordinates": [123.44777474476096, 32.343362518819134]}}, {"type": "Feature", "properties": {"norad_id": 31097, "name": "FENGYUN 1C DEB", "group": "fengyun-1c-debris", "lat": 1.950880450426125, "lon": -70.52730508546897, "alt_km": 738.8154251416126, "timestamp": "2025-12-12T09:49:09.012383+00:00", "meta": {"OBJECT_NAME": "FENGYUN 1C DEB", "OBJECT_ID": "1999-025BGT", "EPOCH": "2025-12-09T14:39:53.425728", "MEAN_MOTION": 14.46886925, "ECCENTRICITY": 0.0015062, "INCLINATION": 98.8581, "RA_OF_ASC_NODE": 106.243, "ARG_OF_PERICENTER": 279.3966, "MEAN_ANOMALY": 91.9398, "EPHEMERIS_TYPE": 0, "CLASSIFICATION_TYPE": "U", "NORAD_CAT_ID": 31097, "ELEMENT_SET_NO": 999, "REV_AT_EPOCH": 96993, "BSTAR": 0.0040814, "MEAN_MOTION_DOT": 0.00014813, "MEAN_MOTION_DDOT": 0}, "tle": {"line1": "1 31097U 99025BGT 25343.61103502  .00014813  00000+0  40814-2 0  9995", "line2": "2 31097  98.8581 106.2430 0015062 279.3966  91.9398 14.46886925969931"}}, "geometry": {"type": "Point", "coordinates": [-70.52730508546897, 1.950880450426125]}}, {"type": "Feature", "properties": {"norad_id": 31098, "name": "FENGYUN 1C DEB", "group": "fengyun-1c-debris", "lat": 40.05882148263065, "lon": 96.79662351506273, "alt_km": 726.5935205006217, "timestamp": "2025-12-12T09:49:09.012394+00:00", "meta": {"OBJECT_NAME": "FENGYUN 1C DEB", "OBJECT_ID": "1999-025BGU", "EPOCH": "2025-12-11T07:09:41.308128", "MEAN_MOTION": 14.51468692, "ECCENTRICITY": 0.00146633, "INCLINATION": 98.8699, "RA_OF_ASC_NODE": 103.1704, "ARG_OF_PERICENTER": 253.3655, "MEAN_ANOMALY": 106.5928, "EPHEMERIS_TYPE": 0, "CLASSIFICATION_TYPE": "U", "NORAD_CAT_ID": 31098, "ELEMENT_SET_NO": 999, "REV_AT_EPOCH": 96936, "BSTAR": 0.006686289, "MEAN_MOTION_DOT": 0.00026801, "MEAN_MOTION_DDOT": 0}, "tle": {"line1": "1 31098U 99025BGU 25345.29839477  .00026801  00000+0  66863-2 0  9991", "line2": "2 31098  98.8699 103.1704 0014663 253.3655 106.5928 14.51468692969367"}}, "geometry": {"type": "Point", "coordinates": [96.79662351506273, 40.05882148263065]}}, {"type": "Feature", "properties": {"norad_id": 31099, "name": "FENGYUN 1C DEB", "group": "fengyun-1c-debris", "lat": -72.45938505224315, "lon": 29.01800646528932, "alt_km": 766.0058572147682, "timestamp": "2025-12-12T09:49:09.012404+00:00", "meta": {"OBJECT_NAME": "FENGYUN 1C DEB", "OBJECT_ID": "1999-025BGV", "EPOCH": "2025-12-12T04:18:00.471168", "MEAN_MOTION": 14.27920703, "ECCENTRICITY": 0.0062699, "INCLINATION": 98.9385, "RA_OF_ASC_NODE": 238.646, "ARG_OF_PERICENTER": 283.0643, "MEAN_ANOMALY": 230.6358, "EPHEMERIS_TYPE": 0, "CLASSIFICATION_TYPE": "U", "NORAD_CAT_ID": 31099, "ELEMENT_SET_NO": 999, "REV_AT_EPOCH": 97463, "BSTAR": 0.00047039, "MEAN_MOTION_DOT": 1.143e-05, "MEAN_MOTION_DDOT": 0}, "tle": {"line1": "1 31099U 99025BGV 25346.17917212  .00001143  00000+0  47039-3 0  9991", "line2": "2 31099  98.9385 238.6460 0062699 283.0643 230.6358 14.27920703974634"}}, "geometry": {"type": "Point", "coordinates": [29.01800646528932, -72.45938505224315]}}, {"type": "Feature", "properties": {"norad_id": 31146, "name": "FENGYUN 1C DEB", "group": "fengyun-1c-debris", "lat": 65.30361271221841, "lon": 117.41991267434825, "alt_km": 703.2459450858505, "timestamp": "2025-12-12T09:49:09.012416+00:00", "meta": {"OBJECT_NAME": "FENGYUN 1C DEB", "OBJECT_ID": "1999-025BGY", "EPOCH": "2025-12-11T13:06:02.441376", "MEAN_MOTION": 14.27700726, "ECCENTRICITY": 0.02125393, "INCLINATION": 99.0409, "RA_OF_ASC_NODE": 276.2699, "ARG_OF_PERICENTER": 170.4839, "MEAN_ANOMALY": 190.0467, "EPHEMERIS_TYPE": 0, "CLASSIFICATION_TYPE": "U", "NORAD_CAT_ID": 31146, "ELEMENT_SET_NO": 999, "REV_AT_EPOCH": 96748, "BSTAR": 0.00051322029, "MEAN_MOTION_DOT": 1.559e-05, "MEAN_MOTION_DDOT": 0}, "tle": {"line1": "1 31146U 99025BGY 25345.54586159  .00001559  00000+0  51322-3 0  9997", "line2": "2 31146  99.0409 276.2699 0212539 170.4839 190.0467 14.27700726967480"}}, "geometry": {"type": "Point", "coordinates": [117.41991267434825, 65.30361271221841]}}, {"type": "Feature", "properties": {"norad_id": 31148, "name": "FENGYUN 1C DEB", "group": "fengyun-1c-debris", "lat": -79.37798058286486, "lon": -4.367126890216184, "alt_km": 836.4681324523672, "timestamp": "2025-12-12T09:49:09.012426+00:00", "meta": {"OBJECT_NAME": "FENGYUN 1C DEB", "OBJECT_ID": "1999-025BHA", "EPOCH": "2025-12-10T15:00:25.932096", "MEAN_MOTION": 14.43336097, "ECCENTRICITY": 0.0136621, "INCLINATION": 98.8655, "RA_OF_ASC_NODE": 230.106, "ARG_OF_PERICENTER": 56.9202, "MEAN_ANOMALY": 304.5019, "EPHEMERIS_TYPE": 0, "CLASSIFICATION_TYPE": "U", "NORAD_CAT_ID": 31148, "ELEMENT_SET_NO": 999, "REV_AT_EPOCH": 97500, "BSTAR": 0.001247, "MEAN_MOTION_DOT": 4.658e-05, "MEAN_MOTION_DDOT": 0}, "tle": {"line1": "1 31148U 99025BHA 25344.62530014  .00004658  00000+0  12470-2 0  9999", "line2": "2 31148  98.8655 230.1060 0136621  56.9202 304.5019 14.43336097975008"}}, "geometry": {"type": "Point", "coordinates": [-4.367126890216184, -79.37798058286486]}}, {"type": "Feature", "properties": {"norad_id": 31150, "name": "FENGYUN 1C DEB", "group": "fengyun-1c-debris", "lat": 52.50809671188247, "lon": -16.419730739724017, "alt_km": 848.2846430356321, "timestamp": "2025-12-12T09:49:09.012437+00:00", "meta": {"OBJECT_NAME": "FENGYUN 1C DEB", "OBJECT_ID": "1999-025BHC", "EPOCH": "2025-12-11T23:40:16.670784", "MEAN_MOTION": 14.12732653, "ECCENTRICITY": 0.0015222, "INCLINATION": 98.686, "RA_OF_ASC_NODE": 354.6651, "ARG_OF_PERICENTER": 161.6157, "MEAN_ANOMALY": 262.7693, "EPHEMERIS_TYPE": 0, "CLASSIFICATION_TYPE": "U", "NORAD_CAT_ID": 31150, "ELEMENT_SET_NO": 999, "REV_AT_EPOCH": 96286, "BSTAR": 0.00023063, "MEAN_MOTION_DOT": 3.86e-06, "MEAN_MOTION_DDOT": 0}, "tle": {"line1": "1 31150U 99025BHC 25345.98630406  .00000386  00000+0  23063-3 0  9993", "line2": "2 31150  98.6860 354.6651 0015222 161.6157 262.7693 14.12732653962868"}}, "geometry": {"type": "Point", "coordinates": [-16.419730739724017, 52.50809671188247]}}]}